{
  "features": [
    {
      "type": "Feature",
      "properties": {
        "snapshotType": "city",
        "title": "Alameda",
        "link": "https://savesfbay.org/wp-content/uploads/2026/03/Alameda-Snapshot-1.pdf",
        "score": null,
        "description": "<b>Key Vulnerabilities</b>\n            <ul>\n                <li>Sea level rise threatens the entirety of Alameda\u2019s shoreline and Bay Farm Island</li>\n                <li>Groundwater rise may impact legacy contamination at Alameda Point</li>\n            </ul>\n            <b>Highlights</b>\n            <ul>\n                <li>The Oakland Alameda Adaptation Committee (OAAC) is creating a plan to\nprotect the city for up to 5.5ft of sea level rise</li>\n            </ul>\n            <b>Opportunities</b>\n            <ul>\n                <li>Continue to advance the long-term shoreline adaptation plan and the associated\nnear-term projects. This will preserve community resources like the Robert W\nCrown Memorial Beach, new development on Alameda Point, and economic\ncenters like the South Shore Shopping Center.</li>\n                <li>Invest in a Workforce Development program to build and maintain green infrastructure across the city.</li>\n            </ul>"
      },
      "geometry": {
        "coordinates": [
          -122.241895,
          37.765339
        ],
        "type": "Point"
      }
    },
    {
      "type": "Feature",
      "properties": {
        "snapshotType": "city",
        "title": "Albany",
        "link": "https://savesfbay.org/wp-content/uploads/2026/06/Albany-Snapshot.pdf",
        "score": null,
        "description": "<b>Key Vulnerabilities</b>\n            <ul>\n                <li>Sea level and groundwater rise by 2100 will flood parts of the Albany bulb, the area around Golden Gate Fields, and the Tom Bates Regional Sports Complex</li>\n                <li>Transportation infrastructure near the shoreline is at risk like Amtrak and highway I-580</li>\n            </ul>\n            <b>Highlights</b>\n            <ul>\n                <li>Albany is coordinating a shoreline adaptation plan with Berkeley and Emeryville</li>\n            </ul>\n            <b>Opportunities</b>\n            <ul>\n                <li>Create a storm drain master plan that aligns with Albany’s green infrastructure plan to ensure the storm drain system can function under future conditions.</li>\n                <li>Implement a Sea Level Rise Overlay Zone where flooding will occur to ensure infrastructure is built to be resilient.</li>\n            </ul>"
      },
      "geometry": {
        "coordinates": [
          -122.297778, 37.886944
        ],
        "type": "Point"
      }
    },
    {
      "type": "Feature",
      "properties": {
        "snapshotType": "city",
        "title": "American Canyon",
        "link": "https://savesfbay.org/wp-content/uploads/2026/06/AmericanCanyon-Snapshot.pdf",
        "score": null,
        "description": "<b>Key Vulnerabilities</b>\n            <ul>\n                <li>Flooding along the Napa River and shoreline</li>\n                <li>Flood risk to the wastewater treatment plant, Public Works Yard, and pump stations along Wetlands Edge Road</li>\n            </ul>\n            <b>Highlights</b>\n            <ul>\n                <li>American Canyon partnered with other jurisdictions in Napa County to create a joint Regional Climate Action and Adaptation Plan, and is now working to create a Regional Shoreline Adaptation Plan</li>\n            </ul>\n            <b>Opportunities</b>\n            <ul>\n                <li>Create a groundwater rise plan that assesses risk to underground utilities, contaminated sites, and flood-prone areas.</li>\n                <li>Create a green stormwater infrastructure (GSI) plan to ensure new city infrastructure incorporates GSI wherever possible.</li>\n            </ul>"
      },
      "geometry": {
        "coordinates": [
          -122.252500, 38.168056
        ],
        "type": "Point"
      }
    },
    {
      "type": "Feature",
      "properties": {
        "snapshotType": "city",
        "title": "Belmont",
        "link": "https://savesfbay.org/wp-content/uploads/2026/06/Belmont-Snapshot.pdf",
        "score": null,
        "description": "<b>Key Vulnerabilities</b>\n            <ul>\n                <li>Areas east of the Caltrain line at risk of flooding from 3.3 feet of sea level rise</li>\n                <li>Flooding along Belmont Creek during storms</li>\n            </ul>\n            <b>Highlights</b>\n            <ul>\n                <li>The Belmont Creek Restoration Project will increase the creek’s flood retention capacity while restoring native vegetation</li>\n            </ul>\n            <b>Opportunities</b>\n            <ul>\n                <li>Establish design standards to ensure new developments and infrastructure are resilient to future flood risk.</li>\n                <li>Create a Storm Drain Master Plan that ensures that the city-owned portion of the storm drain system has the capacity to function under future flood conditions.</li>\n            </ul>"
      },
      "geometry": {
        "coordinates": [
          -122.291667, 37.518056
        ],
        "type": "Point"
      }
    },
    {
      "type": "Feature",
      "properties": {
        "snapshotType": "city",
        "title": "Belvedere",
        "link": "https://savesfbay.org/wp-content/uploads/2026/06/Belvedere-Snapshot.pdf",
        "score": null,
        "description": "<b>Key Vulnerabilities</b>\n            <ul>\n                <li>Flooding of the Belvedere Lagoon, shoreline neighborhoods, and San Rafael Avenue, the primary access road to Belvedere</li>\n                </ul>\n            <b>Highlights</b>\n            <ul>\n                <li>Belvedere is upgrading its coastal flood barriers to protect the city from rising sea levels and severe storms</li>\n            </ul>\n            <b>Opportunities</b>\n            <ul>\n                <li>Update adaptation plans and design flood barriers to be adaptable to 6.6 feet of sea level rise.</li>\n                <li>Create a green stormwater infrastructure plan.</li>\n            </ul>"
      },
      "geometry": {
        "coordinates": [
          	-122.464444, 37.872778
        ],
        "type": "Point"
      }
    },
    {
      "type": "Feature",
      "properties": {
        "snapshotType": "city",
        "title": "Benicia",
        "link": "https://savesfbay.org/wp-content/uploads/2026/06/Benicia-Snapshot.pdf",
        "score": null,
        "description": "<b>Key Vulnerabilities</b>\n            <ul>\n                <li>Flooding of the Benicia Marina, residential areas in lower Downtown Benicia, parts of the Valero Refinery, and parts of the Benicia Industrial Park</li>\n                <li>Movement of contamination from toxic sites near the shoreline</li>\n                </ul>\n            <b>Highlights</b>\n            <ul>\n                <li>Design of a sea wall to protect the wastewater treatment plant from sea level rise</li>\n            <li>Collaboration with other Solano County entities to create a Regional Shoreline Adaptation Plan</li>\n            </ul>\n            <b>Opportunities</b>\n            <ul>\n                <li>Incorporate wetland restoration and nature-based solutions in shoreline protections wherever possible.</li>\n                <li>Establish resilient design standards – such as requiring new buildings to be elevated above projected flood levels – to ensure homes, businesses, and infrastructure are resilient to future flood risk.</li>\n            </ul>"
      },
      "geometry": {
        "coordinates": [
          -122.153893, 38.052147
        ],
        "type": "Point"
      }
    },
    {
      "type": "Feature",
      "properties": {
        "snapshotType": "city",
        "title": "Berkeley",
        "link": "https://savesfbay.org/wp-content/uploads/2026/06/Berkeley-Snapshot.pdf",
        "score": null,
        "description": "<b>Key Vulnerabilities</b>\n            <ul>\n                <li>Inundation from sea level rise and groundwater rise along the Berkeley shoreline inland to San Pablo Ave</li>\n                <li>Increased stormwater runoff will back up storm drains, causing roadways and sidewalks to flood</li>\n                </ul>\n            <b>Highlights</b>\n            <ul>\n                <li>Berkeley is working on their shoreline adaptation in conjunction with the cities of Emeryville, Albany, and Oakland</li>\n            </ul>\n            <b>Opportunities</b>\n            <ul>\n                <li>Implement proposed policy goals in the Stormwater Master Plan Update.</li>\n                <li>Implementing a Sea Level Rise Overlay Zone in an appropriate area would ensure infrastructure is built to be resilient to flooding.</li>\n            </ul>"
      },
      "geometry": {
        "coordinates": [
          	-122.272778, 37.871667
        ],
        "type": "Point"
      }
    },
    {
      "type": "Feature",
      "properties": {
        "snapshotType": "city",
        "title": "Brisbane",
        "link": "https://savesfbay.org/wp-content/uploads/2026/03/Brisbane_Snapshot.pdf",
        "score": null,
        "description": "<b>Key Vulnerabilities</b>\n            <ul>\n                <li>Downtown Brisbane, Northwest Bayshore, and Tunnel Ave are vulnerable to\ngroundwater rise and sea level rise</li>\n                <li>The Brisbane Baylands will be inundated by sea level rise</li>\n            </ul>\n            <b>Highlights</b>\n            <ul>\n                <li>The Brisbane Lagoon Watershed Sea Level Rise Adaptation Plan</li>\n            </ul>\n            <b>Opportunities</b>\n            <ul>\n                <li>Adopt OneShoreline\u2019s guidelines for a Sea Level Rise Overlay District to ensure\nnew development is resilient in the face of future flooding.</li>\n                <li>Update the Storm Drain Master Plan to ensure Brisbane\u2019s storm drain\ninfrastructure can function under future flood conditions.</li>\n            </ul>"
      },
      "geometry": {
        "coordinates": [
          -122.402061,
          37.685339
        ],
        "type": "Point"
      }
    },
    {
      "type": "Feature",
      "properties": {
        "snapshotType": "city",
        "title": "Burlingame",
        "link": "https://savesfbay.org/wp-content/uploads/2026/03/Burlingame_Snapshot.pdf",
        "score": null,
        "description": "<b>Key Vulnerabilities</b>\n            <ul>\n                <li>Flooding in most of the Bayfront Area and parts of Rollins Road</li>\n            </ul>\n            <b>Highlights</b>\n            <ul>\n                <li>The Sea Level Rise Overlay District which establishes public access and sea\nlevel rise building standards for new developments</li>\n            </ul>\n            <b>Opportunities</b>\n            <ul>\n                <li>Establish building standards to protect against groundwater rise \u2013 such as\nrequiring developments near contaminated sites to establish contaminant\nmonitoring plans.</li>\n                <li>Update the Storm Drain Master Plan to ensure that the storm drain system can\nfunction under future climate conditions.</li>\n            </ul>"
      },
      "geometry": {
        "coordinates": [
          -122.348364,
          37.577991
        ],
        "type": "Point"
      }
    },
    {
      "type": "Feature",
      "properties": {
        "snapshotType": "city",
        "title": "Corte Madera",
        "link": "https://savesfbay.org/wp-content/uploads/2026/03/CorteMadera-Snapshot.pdf",
        "score": null,
        "description": "<b>Key Vulnerabilities</b>\n            <ul>\n                <li>Severe flooding in the Mariner Cove and Marina Village neighborhoods</li>\n                <li>Permanent inundation of marshes in the Corte Madera Ecological Reserve</li>\n            </ul>\n            <b>Highlights</b>\n            <ul>\n                <li>Regulations making it easier for homeowners to raise their homes above\nexpected flood levels</li>\n            </ul>\n            <b>Opportunities</b>\n            <ul>\n                <li>Establish design standards to ensure new developments and infrastructure are\nresilient to future flood risk.</li>\n                <li>Maximize opportunities for nature-based flood resilience and marsh restoration in\nthe city&#39;s ongoing flood berm upgrade planning.</li>\n            </ul>"
      },
      "geometry": {
        "coordinates": [
          -122.526541,
          37.925527
        ],
        "type": "Point"
      }
    },
    {
      "type": "Feature",
      "properties": {
        "snapshotType": "city",
        "title": "East Palo Alto",
        "link": "https://savesfbay.org/wp-content/uploads/2026/03/EPA_Snapshot.pdf",
        "score": null,
        "description": "<b>Key Vulnerabilities</b>\n            <ul>\n                <li>Flooding along San Francisquito Creek and the shoreline</li>\n                <li>Contaminated sites along the shoreline</li>\n            </ul>\n            <b>Highlights</b>\n            <ul>\n                <li>The SAFER Bay Project, designed by the San Francisquito Creek JPA, will guard\nagainst 3.5 feet of sea level rise</li>\n            </ul>\n            <b>Opportunities</b>\n            <ul>\n                <li>Establish building design standards in at-risk areas to ensure new buildings are\nflood-resilient and to protect renters and homeowners in disadvantaged\ncommunities.</li>\n                <li>Work with community-based organizations and regulatory agencies to support\nthe cleanup of contaminated sites. Community groups like PACT, YUCA, and\nClimate Resilient Communities are actively calling for the cleanup of specific\nsites due to the threat of future flooding.</li>\n            </ul>"
      },
      "geometry": {
        "coordinates": [
          -122.1394,
          37.471699
        ],
        "type": "Point"
      }
    },
    {
      "type": "Feature",
      "properties": {
        "snapshotType": "city",
        "title": "Emeryville",
        "link": "https://savesfbay.org/wp-content/uploads/2026/03/Emeryville-Snapshot-1.pdf",
        "score": null,
        "description": "<b>Key Vulnerabilities</b>\n            <ul>\n                <li>Flooding on Powell Street, cutting off emergency routes, and flooding of\ncommercial and industrial areas</li>\n                <li>Permanent inundation of salt marshes</li>\n            </ul>\n            <b>Highlights</b>\n            <ul>\n                <li>The East Bay Crescent Shoreline Project, which will include an ecotone levee in\nthe Emeryville Crescent Marsh to protect the city from 5.5 ft of sea level rise</li>\n            </ul>\n            <b>Opportunities</b>\n            <ul>\n                <li>Develop strategies to address groundwater rise impacts on shoreline projects,\nvulnerable neighborhoods and infrastructure, the storm drain system, and\ncontaminated sites on the shoreline.</li>\n                <li>Establish resilient design standards to ensure new developments and\ninfrastructure are resilient to future flood risk.</li>\n            </ul>"
      },
      "geometry": {
        "coordinates": [
          -122.285422,
          37.829941
        ],
        "type": "Point"
      }
    },
    {
      "type": "Feature",
      "properties": {
        "snapshotType": "city",
        "title": "Foster City",
        "link": "https://savesfbay.org/wp-content/uploads/2026/06/FosterCity-Snapshot.pdf",
        "score": null,
        "description": "<b>Key Vulnerabilities</b>\n            <ul>\n                <li>Groundwater rise will create new flood risks throughout the city</li>\n                <li>Sea level rise conditions over 3ft will top the recently raised levee surrounding the city</li>\n            </ul>\n            <b>Highlights</b>\n            <ul>\n                <li>Foster City's support of the San Mateo County Flood and Sea Level Rise Resiliency District, OneShoreline</li>\n            </ul>\n            <b>Opportunities</b>\n            <ul>\n                <li>Create a Storm Drain Master Plan to ensure storm drains can function under increased precipitation and higher groundwater level conditions.</li>\n                <li>Have standardized development codes for rising groundwater conditions.</li>\n            </ul>"
      },
      "geometry": {
        "coordinates": [
          -122.266389, 37.551389
          ],
        "type": "Point"
      }
    },
    {
      "type": "Feature",
      "properties": {
        "snapshotType": "city",
        "title": "Fremont",
        "link": "https://savesfbay.org/wp-content/uploads/2026/06/Fremont-Snapshot.pdf",
        "score": null,
        "description": "<b>Key Vulnerabilities</b>\n            <ul>\n                <li>Flooding along the shoreline in Ardenwood Technology Park, the Coyote Hills/Ardenwood neighborhoods, and the Baylands Industrial Area</li>\n                <li>Localized flooding along creeks and near the base of the hills</li>\n            </ul>\n            <b>Highlights</b>\n            <ul>\n                <li>The Coyote Hills Restoration Project preserved over 300 acres of tidal marsh habitat</li>\n            </ul>\n            <b>Opportunities</b>\n            <ul>\n                <li>Collaborate with Union City and Newark to create a Regional Shoreline Adaptation Plan.</li>\n                <li>Create a Storm Drain Master Plan that ensures that the storm drain system has the capacity to function under future flood conditions.</li>\n            </ul>"
      },
      "geometry": {
        "coordinates": [
          	-121.988300, 37.548600
        ],
        "type": "Point"
      }
    },
    {
      "type": "Feature",
      "properties": {
        "snapshotType": "city",
        "title": "Hayward",
        "link": "https://savesfbay.org/wp-content/uploads/2026/03/Hayward_Snapshot.pdf",
        "score": null,
        "description": "<b>Key Vulnerabilities</b>\n            <ul>\n                <li>Flooding of industrial, commercial, and residential areas on the shoreline and\nalong creeks and drainageways</li>\n                <li>Flooding of wetlands like the Oro Loma Marsh and Hayward Marsh</li>\n            </ul>\n            <b>Highlights</b>\n            <ul>\n                <li>The Hayward Regional Shoreline Adaptation Master Plan (HRSAP), which\nrecommends nature-based strategies for preparing for sea level rise</li>\n                <li>The First Mile Horizontal Levee flood resilience and water treatment project</li>\n            </ul>\n            <b>Opportunities</b>\n            <ul>\n                <li>Establish design standards to ensure new developments and infrastructure are\nresilient to future flood risk.</li>\n                <li>Create a Storm Drain Master Plan that ensures that the city-owned portion of the\nstorm drain system has the capacity to function under future flood conditions.</li>\n            </ul>"
      },
      "geometry": {
        "coordinates": [
          -122.083978,
          37.672114
        ],
        "type": "Point"
      }
    },
    {
      "type": "Feature",
      "properties": {
        "snapshotType": "city",
        "title": "Hercules",
        "link": "https://savesfbay.org/wp-content/uploads/2026/03/Hercules-Snapshot.pdf",
        "score": null,
        "description": "<b>Key Vulnerabilities</b>\n            <ul>\n                <li>Increased flooding along Pinole Creek and Refugio Creek</li>\n                <li>Sea level rise risk to the Hercules Hub, a planned multi-use development</li>\n            </ul>\n            <b>Highlights</b>\n            <ul>\n                <li>The Refugio Creek Overlay Zone, which preserves the land near Refugio Creek\nfor flood protection and open space</li>\n            </ul>\n            <b>Opportunities</b>\n            <ul>\n                <li>Consider multiple sea level rise scenarios in the city\u2019s resilience planning,\nincluding the possibility of 6.6 feet of sea level rise and related groundwater rise\nby 2100.</li>\n                <li>Establish resilient design standards to ensure new developments and\ninfrastructure are resilient to future flood risk.</li>\n            </ul>"
      },
      "geometry": {
        "coordinates": [
          -122.287437,
          38.018012
        ],
        "type": "Point"
      }
    },
    {
      "type": "Feature",
      "properties": {
        "snapshotType": "city",
        "title": "Larkspur",
        "link": "https://savesfbay.org/wp-content/uploads/2026/06/Larkspur-Snapshot.pdf",
        "score": null,
        "description": "<b>Key Vulnerabilities</b>\n            <ul>\n                <li>Flooding of residential areas along Corte Madera Creek, including some of the county’s limited affordable housing</li>\n                <li>Movement of contamination from toxic sites along the shoreline</li>\n            </ul>\n            <b>Highlights</b>\n            <ul>\n                <li>Larkspur has designated Shoreline/Wetland Conservation Areas that are preserved for habitat and recreation</li>\n            </ul>\n            <b>Opportunities</b>\n            <ul>\n                <li>Partner with Marin County and neighboring cities to create a Regional Shoreline Adaptation Plan.</li>\n                <li>Explore policies that would allow homeowners to raise their homes above the projected sea level rise flood levels.</li>\n            </ul>"
      },
      "geometry": {
        "coordinates": [
          	-122.535278, 37.934167
        ],
        "type": "Point"
      }
    },
    {
      "type": "Feature",
      "properties": {
        "snapshotType": "city",
        "title": "Martinez",
        "link": "https://savesfbay.org/wp-content/uploads/2026/06/Martinez-Snapshot.pdf",
        "score": null,
        "description": "<b>Key Vulnerabilities</b>\n            <ul>\n                <li>Sea level rise could inundate the public wastewater treatment plant</li>\n                <li>Transportation infrastructure near the shoreline is at risk like the Amtrak station and Bay Trail</li>\n            </ul>\n            <b>Highlights</b>\n            <ul>\n                <li>Martinez participates in the Resilient Shoreline Coalition with Contra Costa County and other shoreline cities</li>\n            </ul>\n            <b>Opportunities</b>\n            <ul>\n                <li>Expand green infrastructure requirements to the public right of way for conditions of approval in new developments and alignment with a Storm Drain Master Plan.</li>\n                <li>Implement a Sea Level Rise Overlay Zone where flooding will occur to ensure resilient infrastructure.</li>\n            </ul>"
      },
      "geometry": {
        "coordinates": [
          	-122.134167, 38.019444
        ],
        "type": "Point"
      }
    },
    {
      "type": "Feature",
      "properties": {
        "snapshotType": "city",
        "title": "Menlo Park",
        "link": "https://savesfbay.org/wp-content/uploads/2026/06/MenloPark_Snapshot.pdf",
        "score": null,
        "description": "<b>Key Vulnerabilities</b>\n            <ul>\n                <li>Flooding along San Francisquito Creek and in the Belle Haven and Bayfront neighborhoods</li>\n                <li>Movement of contamination from toxic sites along the shoreline into surrounding communities</li>\n            </ul>\n            <b>Highlights</b>\n            <ul>\n                <li>The SAFER Bay Project, designed by the San Francisquito Creek JPA, will guard against 3.5 feet of sea level rise</li>\n            </ul>\n            <b>Opportunities</b>\n            <ul>\n                <li>Establish building design standards in at-risk areas to ensure new buildings are flood-resilient and to protect renters and homeowners in disadvantaged communities</li>\n                <li>Work with community-based organizations and regulatory agencies to support the cleanup of contaminated sites. Community groups like PACT, YUCA, and Climate Resilient Communities are actively calling for the cleanup of specific sites due to the threat of future flooding</li>\n            </ul>"
      },
      "geometry": {
        "coordinates": [
          -122.183333, 37.452778
        ],
        "type": "Point"
      }
    },
    {
      "type": "Feature",
      "properties": {
        "snapshotType": "city",
        "title": "Mill Valley",
        "link": "https://savesfbay.org/wp-content/uploads/2026/03/MillValley-Snapshot.pdf",
        "score": null,
        "description": "<b>Key Vulnerabilities</b>\n            <ul>\n                <li>More severe and frequent flooding in Shelter Bay and Tam Junction</li>\n                <li>Permanent inundation of Bothin Marsh</li>\n            </ul>\n            <b>Highlights</b>\n            <ul>\n                <li>The Mill Valley Shoreline Adaptation Framework will be a road map for protecting\nresidents from the impacts of future flooding.</li>\n            </ul>\n            <b>Opportunities</b>\n            <ul>\n                <li>Implement a Sea Level Rise Overlay District to ensure any new development is\nable to withstand sea level rise and related flood risks.</li>\n                <li>Update the Storm Drain Master Plan to ensure Mill Valley\u2019s storm drain\ninfrastructure can function under future flood conditions.</li>\n            </ul>"
      },
      "geometry": {
        "coordinates": [
          -122.547508,
          37.905573
        ],
        "type": "Point"
      }
    },
    {
      "type": "Feature",
      "properties": {
        "snapshotType": "city",
        "title": "Millbrae",
        "link": "https://savesfbay.org/wp-content/uploads/2026/06/Millbrae-Snapshot.pdf",
        "score": null,
        "description": "<b>Key Vulnerabilities</b>\n            <ul>\n                <li>Flooding in areas east of the BART tracks, including residential neighborhoods, roads, and the wastewater treatment plant</li>\n                <li>Extreme storms may overwhelm the storm drain system</li>\n            </ul>\n            <b>Highlights</b>\n            <ul>\n                <li>Millbrae partnered with OneShoreline and Burlingame to design a shoreline resilience project to protect the city from sea level rise</li>\n            <li>Millbrae has created several multi-benefit green street projects that improve road safety while treating stormwater runoff and reducing flooding</li>\n            </ul>\n            <b>Opportunities</b>\n            <ul>\n                <li>Establish resilient design standards – such as requiring new buildings to be elevated above projected flood levels – to ensure homes, businesses, and infrastructure are resilient to future flood risk.</li>\n                <li>Incorporate nature-based solutions into the Millbrae and Burlingame Shoreline Resilience Project as much as possible.</li>\n            </ul>"
      },
      "geometry": {
        "coordinates": [
          -122.401389, 37.600833
        ],
        "type": "Point"
      }
    },
    {
      "type": "Feature",
      "properties": {
        "snapshotType": "city",
        "title": "Mountain View",
        "link": "https://savesfbay.org/wp-content/uploads/2026/06/MountainView-Snapshot.pdf",
        "score": null,
        "description": "<b>Key Vulnerabilities</b>\n            <ul>\n                <li>Flooding north of Highway 101, including the North Bayshore Area</li>\n            </ul>\n            <b>Highlights</b>\n            <ul>\n                <li>Mountain View’s Sea Level Rise Capital Improvement Plan identifies 12 sea level rise resilience projects to protect from flooding along the shoreline and creeks</li>\n            <li>A former salt pond adjacent to Mountain View’s Shoreline Park was recently restored to wetland habitat</li>\n            </ul>\n            <b>Opportunities</b>\n            <ul>\n                <li>Establish resilient design standards – such as requiring new buildings to be elevated above projected flood levels – to ensure homes, businesses, and infrastructure are resilient to future flood risk.</li>\n                <li>Update the city’s flood resilience project designs to accommodate 6.6 feet of sea level rise and groundwater rise.</li>\n            </ul>"
      },
      "geometry": {
        "coordinates": [
          	-122.083889, 37.386111
        ],
        "type": "Point"
      }
    },
    {
      "type": "Feature",
      "properties": {
        "snapshotType": "city",
        "title": "Newark",
        "link": "https://savesfbay.org/wp-content/uploads/2026/06/Newark-Snapshot.pdf",
        "score": null,
        "description": "<b>Key Vulnerabilities</b>\n            <ul>\n                <li>Flooding of wetlands and neighborhoods along the shoreline</li>\n                <li>Localized flooding on inland streets during extreme storms</li>\n            </ul>\n            <b>Highlights</b>\n            <ul>\n                <li>Newark’s Flood Modeling Report creates a holistic understanding of flood risk and the combined effects of sea level rise, groundwater rise, and climate-driven storms</li>\n            </ul>\n            <b>Opportunities</b>\n            <ul>\n                <li>Newark should preserve and restore its wetlands and prioritize transferring Area 4 to the Don Edwards National Wildlife Refuge.</li>\n                <li>Newark should collaborate with Union City and Fremont to create a Regional Shoreline Resilience Plan.</li>\n            </ul>"
      },
      "geometry": {
        "coordinates": [
          -122.033333, 37.533333
        ],
        "type": "Point"
      }
    },
    {
      "type": "Feature",
      "properties": {
        "snapshotType": "city",
        "title": "Novato",
        "link": "https://savesfbay.org/wp-content/uploads/2026/03/Novato_Snapshot.pdf",
        "score": null,
        "description": "<b>Key Vulnerabilities</b>\n            <ul>\n                <li>Permanent inundation of the Hamilton Wetlands</li>\n                <li>More frequent and severe flooding of the Oaks Shopping Center and\nneighborhoods like Hamilton and Bahia</li>\n            </ul>\n            <b>Highlights</b>\n            <ul>\n                <li>Novato\u2019s comprehensive vulnerability analysis that can be used to inform future\nsea level rise planning</li>\n            </ul>\n            <b>Opportunities</b>\n            <ul>\n                <li>Adopt a Sea Level Rise Overlay District to ensure any new development is built\nto withstand inundation from sea level rise, stormwater flooding, and emergent\ngroundwater.</li>\n                <li>Create a Green Infrastructure Plan with a framework for multi-benefit green\nstormwater infrastructure implementation to improve flood control and water\nquality.</li>\n            </ul>"
      },
      "geometry": {
        "coordinates": [
          -122.567912,
          38.105902
        ],
        "type": "Point"
      }
    },
    {
      "type": "Feature",
      "properties": {
        "snapshotType": "city",
        "title": "Oakland",
        "link": "https://savesfbay.org/wp-content/uploads/2026/03/Oakland-Snapshot.pdf",
        "score": null,
        "description": "<b>Key Vulnerabilities</b>\n            <ul>\n                <li>Flooding in low-income neighborhoods and communities of color in the flatlands\nof West and East Oakland</li>\n                <li>Flooding of contaminated sites in West and East Oakland</li>\n            </ul>\n            <b>Highlights</b>\n            <ul>\n                <li>An updated Storm Drain Master Plan in progress to ensure the storm drain\nsystem can accommodate more extreme storms</li>\n                <li>The Oakland Alameda Adaptation Committee (OAAC), which is creating a plan to\nprotect the Oakland-Alameda Estuary shoreline from up to 5.5ft of sea level rise</li>\n            </ul>\n            <b>Opportunities</b>\n            <ul>\n                <li>Establish design standards to ensure new developments and infrastructure are\nresilient to future flood risk.</li>\n                <li>Work with community members and regulatory agencies to prioritize and support\nthe cleanup of contaminated sites that may pose a health risk to vulnerable\ncommunities when groundwater levels rise.</li>\n            </ul>"
      },
      "geometry": {
        "coordinates": [
          -122.27058,
          37.805306
        ],
        "type": "Point"
      }
    },
    {
      "type": "Feature",
      "properties": {
        "snapshotType": "city",
        "title": "Palo Alto",
        "link": "https://savesfbay.org/wp-content/uploads/2026/03/PaloAlto-Snapshot.pdf",
        "score": null,
        "description": "<b>Key Vulnerabilities</b>\n            <ul>\n                <li>Regular flooding of 4,000 homes and 14 miles of evacuation routes</li>\n                <li>Permanent inundation of wetlands in the Palo Alto Baylands </li>\n            </ul>\n            <b>Highlights</b>\n            <ul>\n                <li>The Palo Alto Living Levee Project, which will provide habitat, flood protection,\nand water quality benefits</li>\n            </ul>\n            <b>Opportunities</b>\n            <ul>\n                <li>Establish design standards to ensure new developments and infrastructure are\nresilient to future flood risk.</li>\n                <li>Monitor contaminated sites to ensure that pollutants are not travelling into nearby\nneighborhoods through sewer pipes.</li>\n            </ul>"
      },
      "geometry": {
        "coordinates": [
          -122.16095,
          37.444508
        ],
        "type": "Point"
      }
    },
    {
      "type": "Feature",
      "properties": {
        "snapshotType": "city",
        "title": "Petaluma",
        "link": "https://savesfbay.org/wp-content/uploads/2026/06/Petaluma-Snapshots.pdf",
        "score": null,
        "description": "<b>Key Vulnerabilities</b>\n            <ul>\n                <li>Overflow of the Petaluma River caused by sea level rise will flood neighborhoods like Historic Downtown Petaluma and wildlife habitat like the River Baylands</li>\n                <li>Larger King Tides will flood southern portions of southern Petaluma, including sections of Lakeview Street</li>\n            </ul>\n            <b>Highlights</b>\n            <ul>\n                <li>Petaluma’s General Plan update will require planning for future flooding conditions</li>\n            </ul>\n            <b>Opportunities</b>\n            <ul>\n                <li>Planning for groundwater rise should be incorporated into future flood planning along with sea level rise and stormwater flooding.</li>\n                <li>A Green Infrastructure Plan would help prevent stormwater flooding and provide co-benefits.</li>\n            </ul>"
      },
      "geometry": {
        "coordinates": [
          -122.631389, 38.245833
        ],
        "type": "Point"
      }
    },
    {
      "type": "Feature",
      "properties": {
        "snapshotType": "city",
        "title": "Pinole",
        "link": "https://savesfbay.org/wp-content/uploads/2026/03/Pinole-Snapshot.pdf",
        "score": null,
        "description": "<b>Key Vulnerabilities</b>\n            <ul>\n                <li>Flooding in neighborhoods along Pinole Creek</li>\n            </ul>\n            <b>Highlights</b>\n            <ul>\n                <li>The Pinole Creek Greenway Master Plan, which describes multi-benefit flood\nresilience and habitat restoration projects</li>\n            </ul>\n            <b>Opportunities</b>\n            <ul>\n                <li>Ensure that flood control plans for Pinole Creek account for future storms, which\nmay become more frequent and extreme due to climate change.</li>\n                <li>Consider partnering with the City of Hercules to move forward with the Chelsea\nWetlands restoration project, which is currently on hold.</li>\n            </ul>"
      },
      "geometry": {
        "coordinates": [
          -122.29117,
          38.005356
        ],
        "type": "Point"
      }
    },
    {
      "type": "Feature",
      "properties": {
        "snapshotType": "city",
        "title": "Redwood City",
        "link": " https://savesfbay.org/wp-content/uploads/2026/03/RedwoodCity_Snapshot-1.pdf",
        "score": null,
        "description": "<b>Key Vulnerabilities</b>\n            <ul>\n                <li>Inundation of coastal developments like Redwood Shores</li>\n                <li>Flooding of Bair Island</li>\n            </ul>\n            <b>Highlights</b>\n            <ul>\n                <li>Redwood City\u2019s Sea Level Rise Vulnerability Assessment and participation in\nOneShoreline, a collaborative effort between all San Mateo County cities to plan\nfor sea level rise.</li>\n            </ul>\n            <b>Opportunities</b>\n            <ul>\n                <li>Utilize nature-based solutions as a part of the upcoming Redwood Shores Sea Level Rise Protection Project.</li>\n                <li>Update the Storm Drain Master Plan to ensure that Redwood City\u2019s storm drain\ninfrastructure can function under future flood conditions.</li>\n            </ul>"
      },
      "geometry": {
        "coordinates": [
          -122.232529,
          37.48628
        ],
        "type": "Point"
      }
    },
    {
      "type": "Feature",
      "properties": {
        "snapshotType": "city",
        "title": "Richmond",
        "link": "https://savesfbay.org/wp-content/uploads/2026/06/Richmond-Snapshot.pdf",
        "score": null,
        "description": "<b>Key Vulnerabilities</b>\n            <ul>\n                <li>Flooding of neighborhoods along Wildcat Creek, San Pablo Creek, and the shoreline, including low-income communities such as the Coronado and Santa Fe neighborhoods</li>\n                <li>Movement of contaminants from toxic sites into surrounding communities</li>\n            </ul>\n            <b>Highlights</b>\n            <ul>\n                <li>Richmond has begun working on a Sea Level Rise Adaptation and Resiliency Plan</li>\n            <li>The Richmond Bay Specific Plan requires the development area to be raised 1 foot above the projected flood level at 3 feet of sea level rise</li>\n            </ul>\n            <b>Opportunities</b>\n            <ul>\n                <li>Establish design standards – such as requiring new buildings to be elevated above projected flood levels – to ensure new developments and infrastructure are resilient to future flood risk.</li>\n                <li>Work with community organizations and regulatory agencies to support the cleanup of contaminated sites that may pose a health risk when groundwater levels rise.</li>\n            </ul>"
      },
      "geometry": {
        "coordinates": [
          -122.347778, 37.935833
        ],
        "type": "Point"
      }
    },
    {
      "type": "Feature",
      "properties": {
        "snapshotType": "city",
        "title": "San Bruno",
        "link": "https://savesfbay.org/wp-content/uploads/2026/06/SanBruno-Snapshot.pdf",
        "score": null,
        "description": "<b>Key Vulnerabilities</b>\n            <ul>\n                <li>Flooding in residential areas east of the Caltrain line between 1st and 7th streets</li>\n            </ul>\n            <b>Highlights</b>\n            <ul>\n                <li>San Bruno is updating its Storm Drainage Master Plan</li>\n            <li>The San Bruno Creek Flood Zone Project will engage community members to design a nature-based flood resilience project for San Bruno Creek</li>\n            </ul>\n            <b>Opportunities</b>\n            <ul>\n                <li>Establish design standards – such as requiring new buildings to be elevated above projected flood levels – to ensure new developments and infrastructure are resilient to future flood risk.</li>\n                <li>As part of the Storm Drainage Master Plan update, study where flooding will intensify due to more extreme rainfall resulting from climate change.</li>\n            </ul>"
      },
      "geometry": {
        "coordinates": [
          	-122.415000, 37.625000
        ],
        "type": "Point"
      }
    },
    {
      "type": "Feature",
      "properties": {
        "snapshotType": "city",
        "title": "San Carlos",
        "link": "https://savesfbay.org/wp-content/uploads/2026/03/SanCarlos_Snapshot.pdf",
        "score": null,
        "description": "<b>Key Vulnerabilities</b>\n            <ul>\n                <li>Flooding along Pulgas Creek, Cordilleras Creek, and Belmont Creek</li>\n                <li>Flooding of shoreline assets including residential neighborhoods, Highway 101,\nand the San Carlos Airport</li>\n            </ul>\n            <b>Highlights</b>\n            <ul>\n                <li>San Carlos has committed to creating its own Regional Shoreline Adaptation\nPlan (RSAP) to comply with state mandates.</li>\n            </ul>\n            <b>Opportunities</b>\n            <ul>\n                <li>Establish resilient design standards to ensure new developments and\ninfrastructure are resilient to future flood risk. These could expand on existing\nsea level rise design standards for the Northeast Area neighborhood.</li>\n                <li>Study which areas will flood more frequently due to future storms and update the\ncity\u2019s flood resilience plans accordingly.</li>\n            </ul>"
      },
      "geometry": {
        "coordinates": [
          -122.258793,
          37.505954
        ],
        "type": "Point"
      }
    },
    {
      "type": "Feature",
      "properties": {
        "snapshotType": "city",
        "title": "San Francisco",
        "link": "https://savesfbay.org/wp-content/uploads/2026/04/SanFrancisco-Snapshot.pdf",
        "score": null,
        "description": "<b>Key Vulnerabilities</b>\n            <ul>\n                <li>Flooding along the Embarcadero and low-lying creek-adjacent neighborhoods like Mission Bay and Bayview-Hunters Point</li>\n                </ul>\n            <b>Highlights</b>\n            <ul>\n                <li>Shoreline resilience and open space projects like the India Basin Waterfront Park Project</li>\n            </ul>\n            <b>Opportunities</b>\n            <ul>\n                <li>Implementing a Sea Level Rise Overlay Zone to ensure infrastructure is built to be resilient to flooding.</li>\n                <li>Establish a 100-foot buffer along creek banks for flood protection.</li>\n            </ul>"
      },
      "geometry": {
        "coordinates": [
          -122.443096,
          37.767442

        ],
        "type": "Point"
      }
    },
    {
      "type": "Feature",
      "properties": {
        "snapshotType": "city",
        "title": "San Jose",
        "link": "https://savesfbay.org/wp-content/uploads/2026/03/SanJose-Snapshot.pdf",
        "score": null,
        "description": "<b>Key Vulnerabilities</b>\n            <ul>\n                <li>Flooding in the Alviso neighborhood</li>\n                <li>Flooding along the Guadalupe River and Coyote Creek</li>\n            </ul>\n            <b>Highlights</b>\n            <ul>\n                <li>The Climate Adaptation and Resilience Plan, which is being created and will\noutline strategies to reduce the risk of climate-related disasters</li>\n            </ul>\n            <b>Opportunities</b>\n            <ul>\n                <li>Identify areas at risk of flooding from groundwater rise and integrate this analysis\ninto the city\u2019s ongoing flood protection projects.</li>\n                <li>Continue participating in the \u201cHealthy Watersheds Thriving Communities\u201d\ninitiative, which is working to identify multi-benefit, community-informed green\ninfrastructure projects. Once priority projects are identified, focus on funding and\nbuilding these projects.</li>\n            </ul>"
      },
      "geometry": {
        "coordinates": [
          -121.890608,
          37.336157
        ],
        "type": "Point"
      }
    },
    {
      "type": "Feature",
      "properties": {
        "snapshotType": "city",
        "title": "San Leandro",
        "link": "https://savesfbay.org/wp-content/uploads/2026/06/SanLeandro-Snapshot.pdf",
        "score": null,
        "description": "<b>Key Vulnerabilities</b>\n            <ul>\n                <li>Flooding along the shoreline and San Leandro Creek, impacting a wastewater treatment plant, parks, railroad lines, and roads</li>\n                <li>Flooding and erosion of wetlands, beaches, and the Bay Trail</li>\n            </ul>\n            <b>Opportunities</b>\n            <ul>\n                <li>Establish design standards – such as requiring new buildings to be elevated above projected flood levels – to ensure new developments and infrastructure are resilient to future flood risk.</li>\n                <li>Update the Storm Drain Master Plan to account for the compounding impacts of sea level rise, groundwater rise, and more extreme storms.</li>\n            </ul>"
      },
      "geometry": {
        "coordinates": [
          	-122.156111, 37.725000
        ],
        "type": "Point"
      }
    },
    {
      "type": "Feature",
      "properties": {
        "snapshotType": "city",
        "title": "San Mateo",
        "link": "https://savesfbay.org/wp-content/uploads/2026/03/SanMateo_Snapshot.pdf",
        "score": null,
        "description": "<b>Key Vulnerabilities</b>\n            <ul>\n                <li>Flooding of 21 miles of highway, 83 miles of local roads at risk, 68 acres of\nwetlands, and homes and businesses</li>\n                <li>Flooding of contaminated sites near the shoreline</li>\n            </ul>\n            <b>Highlights</b>\n            <ul>\n                <li>Levee improvements to protect the North Shoreview neighborhood</li>\n                <li>Complete green street projects like the Laurel Elementary Safe Green Streets\nproject and the Humboldt Sustainable Street improvements</li>\n            </ul>\n            <b>Opportunities</b>\n            <ul>\n                <li>Develop strategies to address groundwater rise impacts on shoreline projects,\nvulnerable neighborhoods and infrastructure, the storm drain system, and\ncontaminated sites.</li>\n                <li>Establish resilient design standards to ensure new developments and\ninfrastructure are resilient to future flood risk.</li>\n            </ul>"
      },
      "geometry": {
        "coordinates": [
          -122.325287,
          37.562984
        ],
        "type": "Point"
      }
    },
    {
      "type": "Feature",
      "properties": {
        "snapshotType": "city",
        "title": "San Rafael",
        "link": "https://savesfbay.org/wp-content/uploads/2026/06/SanRafael-Snapshot.pdf",
        "score": null,
        "description": "<b>Key Vulnerabilities</b>\n            <ul>\n                <li>Flooding along the shoreline and San Rafael Creek, including severe flooding in the Canal area, a densely populated majority-Latino neighborhood</li>\n            </ul>\n            <b>Highlights</b>\n            <ul>\n                <li>The Nuestro Canal, Nuestro Futuro project, led by the community-based organization Canal Alliance, will identify community-supported flood resilience strategies for the Canal neighborhood</li>\n            </ul>\n            <b>Opportunities</b>\n            <ul>\n                <li>Create a Storm Drain Master Plan that ensures the storm drain system is prepared to accommodate the compounding impacts of sea level rise, groundwater rise, and more extreme storms.</li>\n                <li>Establish design standards – such as requiring new buildings to be elevated above projected flood levels – to ensure new developments and infrastructure are resilient to future flood risk.</li>\n            </ul>"
      },
      "geometry": {
        "coordinates": [
          -122.531111, 37.973611
        ],
        "type": "Point"
      }
    },
    {
      "type": "Feature",
      "properties": {
        "snapshotType": "city",
        "title": "Santa Clara",
        "link": "https://savesfbay.org/wp-content/uploads/2026/03/SantaClara_Snapshot.pdf",
        "score": null,
        "description": "<b>Key Vulnerabilities</b>\n            <ul>\n                <li>Flooding of low-lying areas in northern Santa Clara near Highway 237</li>\n                <li>Flooding in neighborhoods along San Tomas Aquino Creek</li>\n            </ul>\n            <b>Highlights</b>\n            <ul>\n                <li>Santa Clara plans to join Santa Clara County\u2019s countywide regional shoreline\nadaptation planning effort.</li>\n            </ul>\n            <b>Opportunities</b>\n            <ul>\n                <li>Consider multiple sea level rise scenarios in the city\u2019s Regional Shoreline\nAdaptation Plan, including the possibility of 6.6 feet of sea level rise by 2100.</li>\n                <li>Update the city\u2019s storm drain and flood resilience plans to ensure it can withstand\nfuture storm conditions.</li>\n            </ul>"
      },
      "geometry": {
        "coordinates": [
          -121.9619,
          37.35231
        ],
        "type": "Point"
      }
    },
    {
      "type": "Feature",
      "properties": {
        "snapshotType": "city",
        "title": "Sausalito",
        "link": "https://savesfbay.org/wp-content/uploads/2026/03/Sausalito-Snapshot.pdf",
        "score": null,
        "description": "<b>Key Vulnerabilities</b>\n            <ul>\n                <li>Frequent flooding in Downtown Sausalito</li>\n                <li>Permanent inundation of transportation infrastructure like the ferry terminal, bus\nstops, and Bridgeway street</li>\n            </ul>\n            <b>Highlights</b>\n            <ul>\n                <li>Sausalito\u2019s Shoreline Adaptation Plan, which plans for groundwater rise,\nstormwater, and sea level rise flooding</li>\n            </ul>\n            <b>Opportunities</b>\n            <ul>\n                <li>Adopt a Sea Level Rise Overlay District to ensure new development is resilient in\nthe face of future flooding.</li>\n                <li>Create a Green Infrastructure Plan to integrate nature-based flood solutions into\ncity infrastructure planning and meet flood resilience goals.</li>\n            </ul>"
      },
      "geometry": {
        "coordinates": [
          -122.485,
          37.859
        ],
        "type": "Point"
      }
    },
    {
      "type": "Feature",
      "properties": {
        "snapshotType": "city",
        "title": "South San Francisco",
        "link": "https://savesfbay.org/wp-content/uploads/2026/03/SSF-Snapshot.pdf",
        "score": null,
        "description": "<b>Key Vulnerabilities</b>\n            <ul>\n                <li>Flooding of the Lindenville neighborhood and areas along Colma Creek</li>\n                <li>Flooding of the South San Francisco - San Bruno Water Quality Control Plant</li>\n            </ul>\n            <b>Highlights</b>\n            <ul>\n                <li>The Sea Level Rise Overlay District which establishes public access and sea\nlevel rise building standards for new developments</li>\n            </ul>\n            <b>Opportunities</b>\n            <ul>\n                <li>Establish a Groundwater Rise Overlay District to build upon the Sea Level Rise\nOverlay District and ensure that residents are protected from future emergent\ngroundwater threats.</li>\n                <li>Update the city\u2019s Storm Drain Master Plan to ensure that the storm drain\ninfrastructure can function under future flood conditions.</li>\n            </ul>"
      },
      "geometry": {
        "coordinates": [
          -122.410124,
          37.655181
        ],
        "type": "Point"
      }
    },
    {
      "type": "Feature",
      "properties": {
        "snapshotType": "city",
        "title": "Suisun City",
        "link": "https://savesfbay.org/wp-content/uploads/2026/06/Suisun-Snapshot.pdf",
        "score": null,
        "description": "<b>Key Vulnerabilities</b>\n            <ul>\n                <li>Flooding in the Downtown Waterfront Area, some residential areas south of Highway 12, and some areas along Laurel Creek and Pennsylvania Avenue Creek</li>\n            </ul>\n            <b>Highlights</b>\n            <ul>\n                <li>A 2022 Community Resilience Building Workshop identified the city’s top climate vulnerabilities and engaged the community to identify actions to address them</li>\n            <li>Suisun City will participate in Solano County’s multijurisdictional Regional Shoreline Adaptation Plan</li>\n            </ul>\n            <b>Opportunities</b>\n            <ul>\n                <li>Incorporate nature-based solutions into the city’s flood protections as much as possible, and preserve the wetlands that border the city.</li>\n                <li>Establish design standards – such as requiring new buildings to be elevated above projected flood levels – to ensure new developments and infrastructure are resilient to future flood risk.</li>\n            </ul>"
      },
      "geometry": {
        "coordinates": [
          	-122.016944, 38.245000
        ],
        "type": "Point"
      }
    },
    {
      "type": "Feature",
      "properties": {
        "snapshotType": "city",
        "title": "Sunnyvale",
        "link": "https://savesfbay.org/wp-content/uploads/2026/03/Sunnyvale_Snapshot.pdf",
        "score": null,
        "description": "<b>Key Vulnerabilities</b>\n            <ul>\n                <li>Flooding in the Moffet Park neighborhood</li>\n                <li>Flooding of city\u2019s wastewater treatment plant</li>\n            </ul>\n            <b>Highlights</b>\n            <ul>\n                <li>The Ecological Innovation District, an area of the Moffet Park neighborhood\ndesignated for sustainable and ecologically resilient development practices</li>\n            </ul>\n            <b>Opportunities</b>\n            <ul>\n                <li>Establish resilient design standards to ensure new developments and\ninfrastructure are resilient to future flood risk. These can expand upon existing\ndesign standards in the Ecological Innovation District.</li>\n                <li>Develop an equity framework that identifies areas of overlapping vulnerabilities\n(such as extreme heat, flooding, and socioeconomic vulnerabilities) to determine\nwhere to prioritize climate adaptations.</li>\n            </ul>"
      },
      "geometry": {
        "coordinates": [
          -122.028784,
          37.3773
        ],
        "type": "Point"
      }
    },
    {
      "type": "Feature",
      "properties": {
        "snapshotType": "city",
        "title": "Tiburon",
        "link": "https://savesfbay.org/wp-content/uploads/2026/03/Tiburon_Snapshot.pdf",
        "score": null,
        "description": "<b>Key Vulnerabilities</b>\n            <ul>\n                <li>Flooding of the ferry terminal, Bay Trail, and Highway 101</li>\n                <li>Flooding of Tiburon\u2019s fire department, library, and post office</li>\n            </ul>\n            <b>Highlights</b>\n            <ul>\n                <li>The Sea Level Rise and Shoreline Adaptation Plan, which plans to protect\nagainst 6.5 feet of sea level rise</li>\n            </ul>\n            <b>Opportunities</b>\n            <ul>\n                <li>Adopt a Sea Level Rise Overlay District to ensure new development is resilient in\nthe face of future flooding.</li>\n                <li>Update the Storm Drain Master Plan to ensure Tiburon\u2019s storm drain\ninfrastructure can function under future flood conditions.</li>\n            </ul>"
      },
      "geometry": {
        "coordinates": [
          -122.456252,
          37.873802
        ],
        "type": "Point"
      }
    },
    {
      "type": "Feature",
      "properties": {
        "snapshotType": "city",
        "title": "Union City",
        "link": "https://savesfbay.org/wp-content/uploads/2026/03/UnionCity_Snapshot.pdf",
        "score": null,
        "description": "<b>Key Vulnerabilities</b>\n            <ul>\n                <li>Flooding in industrial, commercial, and residential areas along the shoreline and\ncreek channels</li>\n                <li>Flooding of the Alvarado Wastewater Treatment Plant</li>\n            </ul>\n            <b>Highlights</b>\n            <ul>\n                <li>The city is updating its Climate Action Plan, which will include sea level rise\nadaptation strategies.</li>\n            </ul>\n            <b>Opportunities</b>\n            <ul>\n                <li>Partner with the neighboring cities of Fremont and Newark to create a Regional\nShoreline Adaptation Plan to comply with state mandates.</li>\n                <li>Establish building design standards in at-risk areas to ensure new buildings are\nflood resilient.</li>\n            </ul>"
      },
      "geometry": {
        "coordinates": [
          -122.021111,
          37.588791
        ],
        "type": "Point"
      }
    },
    {
      "type": "Feature",
      "properties": {
        "snapshotType": "city",
        "title": "Vallejo",
        "link": "https://savesfbay.org/wp-content/uploads/2026/06/Vallejo-Snapshot.pdf",
        "score": null,
        "description": "<b>Key Vulnerabilities</b>\n            <ul>\n                <li>Flooding of the White Slough, South Vallejo, and Mare Island neighborhoods which will impact residential and commercial areas, unhoused residents, and the wastewater treatment plant</li>\n            </ul>\n            <b>Highlights</b>\n            <ul>\n                <li>Vallejo will participate in Solano County’s multijurisdictional Regional Shoreline Adaptation Plan</li>\n            <li>Developments in areas vulnerable to 55 inches of sea level rise are required to conduct an environmental review and identify flood mitigation measures</li>\n            </ul>\n            <b>Opportunities</b>\n            <ul>\n                <li>Nature-based flood protections and wetland preservation should be incorporated into the ongoing plans to redevelop Mare Island.</li>\n                <li>Vallejo should strengthen its existing flood resilience standards to require all new developments vulnerable to 6.6 feet of sea level rise to incorporate flood-resilient measures such as elevating the first flood above projected flood levels.</li>\n            </ul>"
      },
      "geometry": {
        "coordinates": [
          -122.235833, 38.113056
        ],
        "type": "Point"
      }
    },
    {
      "type": "Feature",
      "properties": {
        "snapshotType": "county",
        "title": "Alameda County",
        "link": "https://savesfbay.org/wp-content/uploads/2026/07/Alameda-County-Snapshot.pdf",
        "score": null,
        "description": "<b>Key Vulnerabilities</b>\n            <ul>\n                <li>Flooding from sea level rise and groundwater rise, including in the unincorporated community of San Lorenzo</li>\n                <li>Inland flooding from stormwater in communities like Castro Valley</li>\n            </ul>\n            <b>Highlights</b>\n            <ul>\n                <li>The Eden Landing wetland restoration project will restore 6,400 acres of tidal marsh for flood protection and habitat creation</li>\n            </ul>\n            <b>Opportunities</b>\n            <ul>\n                <li>Support and collaborate with cities in their shoreline adaptation plan efforts</li>\n                <li>Study the flood risk implications of future rainfall projections to ensure residents and infrastructure are protected</li>\n            </ul>"
      },
      "geometry": {
        "coordinates": [
          -121.912488, 37.647139
        ],
        "type": "Point"
      }
    },
    {
      "type": "Feature",
      "properties": {
        "snapshotType": "county",
        "title": "Contra Costa County",
        "link": "https://savesfbay.org/wp-content/uploads/2026/07/Contra-Costa-County-Snapshot.pdf",
        "score": null,
        "description": "<b>Key Vulnerabilities</b>\n            <ul>\n                <li>Groundwater rise in shoreline communities threatens to inundate contaminated sites, posing a public health risk</li>\n                <li>Sea level rise threatens shoreline areas like the Crocket/Carquinez Bridge landing and unincorporated areas like the Rodeo and Bay Point neighborhoods</li>\n            </ul>\n            <b>Highlights</b>\n            <ul>\n                <li>Contra Costa County is creating a collaborative shoreline resilience plan to protect city and county assets and residents</li>\n            </ul>\n            <b>Opportunities</b>\n            <ul>\n                <li>Study the impacts of flooding on contaminated sites around the county to protect residents from harmful health outcomes</li>\n                <li>Establish building design standards in at-risk areas to ensure new buildings are flood-resilient</li>\n            </ul>"
      },
      "geometry": {
        "coordinates": [
          -121.951543, 37.919479
        ],
        "type": "Point"
      }
    },
    {
      "type": "Feature",
      "properties": {
        "snapshotType": "county",
        "title": "Marin County",
        "link": "https://savesfbay.org/wp-content/uploads/2026/07/Marin-County-Snapshot.pdf",
        "score": null,
        "description": "<b>Key Vulnerabilities</b>\n            <ul>\n                <li>Flooding of critical transportation routes such as Highway 37 and the Manzanita Interchange of US Highways 101 and 1</li>\n                <li>Flooding of 12,000 buildings, several wastewater treatment plants, and ecological assets like the Novato Baylands and Bothin Marsh</li>\n            </ul>\n            <b>Highlights</b>\n            <ul>\n                <li>The County hired a Chief Climate Officer, a new position tasked with advancing the county’s sea level rise response</li>\n            <li>The Evolving Shorelines project will restore Bothin Marsh to help it adapt to sea level rise and protect inland assets from flooding</li>\n            </ul>\n            <b>Opportunities</b>\n            <ul>\n                <li>Provide countywide coordination among cities and agencies for sea level rise resilience planning</li>\n                <li>Create stormwater plans for the county’s unincorporated urban areas to prepare them for future storm conditions</li>\n            </ul>"
      },
      "geometry": {
        "coordinates": [
          -122.746396, 38.051367
        ],
        "type": "Point"
      }
    },
    {
      "type": "Feature",
      "properties": {
        "snapshotType": "county",
        "title": "Napa County",
        "link": "https://savesfbay.org/wp-content/uploads/2026/07/Napa-County-Snapshot.pdf",
        "score": null,
        "description": "<b>Key Vulnerabilities</b>\n            <ul>\n                <li>Environmental assets like the American Canyon Wetlands could be lost to sea level rise and groundwater rise</li>\n                <li>Unincorporated communities like Cuttings Wharf, Brazos, and Buchli are all at risk of inundation</li>\n            </ul>\n            <b>Highlights</b>\n            <ul>\n                <li>Napa County is coordinating with the city of American Canyon on a Shoreline Adaptation Plan</li>\n            </ul>\n            <b>Opportunities</b>\n            <ul>\n                <li>Establish building design standards in at-risk areas to ensure new buildings are flood-resilient</li>\n                <li>Study how future rainfall projections impact flood risk and ensure that the storm drain system can accommodate more intense storms</li>\n            </ul>"
      },
      "geometry": {
        "coordinates": [
          -122.325904, 38.507100
        ],
        "type": "Point"
      }
    },
    {
      "type": "Feature",
      "properties": {
        "snapshotType": "county",
        "title": "San Mateo County",
        "link": "https://savesfbay.org/wp-content/uploads/2026/07/San-Mateo-County-Snapshot.pdf",
        "score": null,
        "description": "<b>Key Vulnerabilities</b>\n            <ul>\n                <li>Sea level rise, groundwater rise, and liquefaction threaten areas that were built on top of low-lying bay fill, such Foster City and Redwood Shores</li>\n                <li>Public assets including 34 schools, 2 airports and 5 wastewater treatment plants are vulnerable to sea level rise</li>\n            </ul>\n            <b>Highlights</b>\n            <ul>\n                <li>San Mateo County’s Sea Level Rise Resiliency Planning District (OneShoreline) is created flood resilience planning guidance for the cities and is coordinating cohesive flood protections for the Bay shoreline</li>\n            </ul>\n            <b>Opportunities</b>\n            <ul>\n                <li>As rising sea levels push the groundwater table higher, contaminated sites may be flooded from below and allow vaporized toxins to enter buildings through sewer pipes. OneShoreline should create guidance for upgrading sewer infrastructure to address this risk</li>\n                <li>OneShoreline should prioritize nature-based solutions in sea level rise adaptation projects</li>\n            </ul>"
      },
      "geometry": {
        "coordinates": [
          -122.371546, 37.414672
        ],
        "type": "Point"
      }
    },
    {
      "type": "Feature",
      "properties": {
        "snapshotType": "county",
        "title": "Santa Clara County",
        "link": "https://savesfbay.org/wp-content/uploads/2026/07/Santa-Clara-County-Snapshot.pdf",
        "score": null,
        "description": "<b>Key Vulnerabilities</b>\n            <ul>\n                <li>Flooding along the shoreline in northern Santa Clara County, including the unincorporated area of Moffett Field</li>\n                <li>Flooding along Coyote Creek, Calabasas Creek, Guadalupe River, and other creeks as extreme storms increase</li>\n            </ul>\n            <b>Highlights</b>\n            <ul>\n                <li>Santa Clara County is coordinating with all of its shoreline cities to create a countywide Regional Shoreline Adaptation Plan</li>\n            <li>The South Bay Shoreline Project will combine wetland restoration with FEMA-certified levees to protect against sea level rise</li>\n            </ul>\n            <b>Opportunities</b>\n            <ul>\n                <li>Identify contaminated sites that are at risk of flooding and work with property owners to implement climate adaptation plans to protect community health</li>\n                <li>Pursue funding and implementing green stormwater infrastructure projects identified as part of the county’s ongoing “Healthy Watersheds, Thriving Communities” initiative</li>\n            </ul>"
      },
      "geometry": {
        "coordinates": [
          -121.689540, 37.221614
        ],
        "type": "Point"
      }
    },
    {
      "type": "Feature",
      "properties": {
        "snapshotType": "county",
        "title": "Solano County",
        "link": "https://savesfbay.org/wp-content/uploads/2026/07/Solano-County-Snapshot.pdf",
        "score": null,
        "description": "<b>Key Vulnerabilities</b>\n            <ul>\n                <li>Contaminated sites along the shoreline, specifically in Fairfield and Suisun City, may be inundated by groundwater rise</li>\n                <li>Suisun Marsh could become permanently inundated by sea level rise</li>\n            </ul>\n            <b>Highlights</b>\n            <ul>\n                <li>The Solano Bayshore Resiliency Project will create a collaborative sea level rise plan for the county, Benicia, Fairfield, Suisun City, Vallejo, and the Fairfield-Suisun Sewer District</li>\n            </ul>\n            <b>Opportunities</b>\n            <ul>\n                <li>Study the impacts of sea level rise on contaminated sites and the potential health risks to surrounding communities</li>\n                <li>Establish building design standards in at-risk areas to ensure new buildings are resilient to flooding</li>\n            </ul>"
      },
      "geometry": {
        "coordinates": [
          -121.939594, 38.267226
        ],
        "type": "Point"
      }
    },
    {
      "type": "Feature",
      "properties": {
        "snapshotType": "county",
        "title": "Sonoma County",
        "link": "https://savesfbay.org/wp-content/uploads/2026/07/Sonoma-County-Snapshot.pdf",
        "score": null,
        "description": "<b>Key Vulnerabilities</b>\n            <ul>\n                <li>Increased storms and sea level rise will cause more extreme flooding along the Russian River</li>\n                <li>Sea level rise threatens county medical, transportation, energy, and emergency service resources near the shoreline</li>\n            </ul>\n            <b>Highlights</b>\n            <ul>\n                <li>Sonoma County is collaborating with the City of Petaluma to create the Sonoma County North Bay Sea Level Rise Resilience Plan</li>\n            </ul>\n            <b>Opportunities</b>\n            <ul>\n                <li>Create a Storm Drain Master Plan to ensure county storm drains can function under future storm conditions</li>\n                <li>Create a Green Infrastructure Plan to mitigate stormwater flooding using urban greening features</li>\n            </ul>"
      },
      "geometry": {
        "coordinates": [
          -122.926110, 38.525182
        ],
        "type": "Point"
      }
    }
  ],
  "type": "FeatureCollection"
}
